GLOBALSTAR M024 [-]     
1 25883U 99043A   23230.12798900 -.00000106  00000+0 -14527-2 0  9996
2 25883  52.0011  90.2287 0002096  70.5131  72.7587 11.10153141 40580
GLOBALSTAR M027 [-]     
1 25884U 99043B   23227.52986117 -.00000083  00000+0 -71653-3 0  9994
2 25884  52.0196 155.0534 0021699 347.3549  12.6698 11.04366021 67073
GLOBALSTAR M054 [-]     
1 25885U 99043C   23230.80645163 -.00000060  00000+0  29961-3 0  9992
2 25885  52.0161  27.2080 0005319  93.4320  46.5100 11.39204129 43200
GLOBALSTAR M053 [-]     
1 25886U 99043D   23231.14212997 -.00000043  00000+0  73599-3 0  9993
2 25886  51.9984 296.4467 0003227  34.2545 343.3033 11.27650080 44223
GLOBALSTAR M058 [-]     
1 25907U 99049A   23230.14095311 -.00000029  00000+0  74600-3 0  9999
2 25907  51.9938  95.6474 0002993  59.9478 300.1654 11.93164430 72897
GLOBALSTAR M050 [-]     
1 25908U 99049B   23231.18924731 -.00000008  00000+0  90864-3 0  9999
2 25908  51.9980 150.4285 0008877 137.5080  37.9214 12.07420965 72222
GLOBALSTAR M033 [-]     
1 25909U 99049C   23230.87835851 -.00000114  00000+0 -21571-3 0  9997
2 25909  51.9920  69.2738 0011624 347.4063  12.6493 12.20259701 86872
GLOBALSTAR M055 [-]     
1 25910U 99049D   23231.11769533 -.00000065  00000+0  24909-3 0  9992
2 25910  52.0014 111.8571 0006533 179.5158 180.5701 12.29385880 86336
